INTELSAT 30 (IS-30)     
1 40271U 14062A   17273.18521788 -.00000163  00000-0  00000+0 0  9997
2 40271   0.0211 176.0679 0002312 278.0993 246.5801  1.00270169 10858
ARSAT 1                 
1 40272U 14062B   17272.86160419 -.00000272  00000-0  00000-0 0  9994
2 40272   0.0137 158.2370 0001240  22.6180  66.3598  1.00272425 10708
EXPRESS-AM6             
1 40277U 14064A   17272.63955206  .00000085  00000-0  00000+0 0  9992
2 40277   0.0416 315.9069 0000762 326.1955   9.7371  1.00272486 10752
GSAT-16                 
1 40332U 14078A   17272.82290296  .00000072  00000-0  00000-0 0  9998
2 40332   0.0379 109.4638 0005590   3.6577 246.9589  1.00273435 10213
DIRECTV 14              
1 40333U 14078B   17272.53648505 -.00000138  00000-0  00000+0 0  9990
2 40333   0.0250 262.5870 0000977  97.3980 102.4118  1.00271869 10339
YAMAL 401               
1 40345U 14082A   17273.32618657 -.00000241  00000-0  00000+0 0  9996
2 40345   0.0139 147.4103 0001135 150.5609 278.6840  1.00271884 10509
ASTRA 2G                
1 40364U 14089A   17272.89724849  .00000137  00000-0  00000+0 0  9999
2 40364   0.0469  31.0961 0002434  66.7434 262.2099  1.00273131 10112
FENGYUN 2G              
1 40367U 14090A   17273.01081391 -.00000343  00000-0  00000+0 0  9997
2 40367   0.2472 237.9649 0003523  39.3529 200.3115  1.00271376 10135
INMARSAT 5-F2           
1 40384U 15005A   17272.22618876 -.00000298  00000-0  00000+0 0  9998
2 40384   0.0216 195.9261 0000828 255.1913 303.4749  1.00269980  9764
ABS-3A                  
1 40424U 15010A   17271.98622906 -.00000039  00000-0  00000-0 0  9994
2 40424   0.0190 188.3289 0002237 280.8303 250.8650  1.00270212  9519
EUTELSAT 115 WEST B     
1 40425U 15010B   17273.29344073 -.00000037  00000-0  00000+0 0  9994
2 40425   0.0025  64.0798 0000376 241.1154  54.8013  1.00269610  9535
EXPRESS-AM7             
1 40505U 15012A   17273.35049347  .00000138  00000-0  00000+0 0  9999
2 40505   0.0093 173.4541 0002087   0.8198   1.2575  1.00276687  9451
IRNSS-1D                
1 40547U 15018A   17272.48090086 -.00000300  00000-0  00000-0 0  9993
2 40547  28.8793 293.3766 0020616 188.1979 171.7852  1.00272394  9089
THOR 7                  
1 40613U 15022A   17271.97981201 -.00000021  00000-0  00000+0 0  9992
2 40613   0.0122 166.1904 0002630   8.5952 185.2377  1.00272164  8901
TURKMENALEM52E/MONACOSAT
1 40617U 15023A   17272.83111869  .00000092  00000-0  00000+0 0  9995
2 40617   0.0160 215.0223 0002172 316.5354 188.4459  1.00268361  8937
DIRECTV 15              
1 40663U 15026A   17271.26537358 -.00000116  00000-0  00000-0 0  9999
2 40663   0.0145 127.3361 0000613  34.3594 198.3263  1.00270871  8615
SKY MEXICO-1            
1 40664U 15026B   17273.19347500 -.00000247  00000-0  00000+0 0  9996
2 40664   0.0156 176.3782 0002191   5.0772 178.5662  1.00273275  8631
METEOSAT-11 (MSG-4)     
1 40732U 15034A   17272.63672847 -.00000043  00000-0  00000-0 0  9999
2 40732   1.6523 234.7999 0001139  18.3355 341.1044  1.00270761  8130
STAR ONE C4             
1 40733U 15034B   17273.35535250 -.00000277  00000-0  00000+0 0  9994
2 40733   0.0117  64.1020 0001330 154.9774 208.1541  1.00270549  8136
INTELSAT 34 (IS-34)     
1 40874U 15039A   17272.13175193 -.00000298  00000-0  00000-0 0  9990
2 40874   0.0210 197.4034 0000167 209.3487 313.2493  1.00269931  7758
EUTELSAT 8 WEST B       
1 40875U 15039B   17272.99738642 -.00000078  00000-0  00000+0 0  9994
2 40875   0.0704 351.6613 0002564 207.3893 160.9618  1.00272189  7784
GSAT-6                  
1 40880U 15041A   17272.74507314 -.00000177  00000-0  00000+0 0  9996
2 40880   0.0827  93.4908 0008951 163.7929 102.6384  1.00270016  7729
INMARSAT 5-F3           
1 40882U 15042A   17273.47498157  .00000038  00000-0  00000+0 0  9999
2 40882   0.0226 197.8481 0000629 298.7400 223.4168  1.00269238  7654
TJS-1                   
1 40892U 15046A   17272.70813444 -.00000168  00000-0  00000-0 0  9995
2 40892   0.0955 280.0645 0006275  80.0720  58.3916  1.00276624  7643
EXPRESS-AM8             
1 40895U 15048A   17273.26933193 -.00000124  00000-0  00000+0 0  9997
2 40895   0.0294 309.9133 0000560 345.1408 157.1194  1.00271809  7471
SKY MUSTER (NBN1A)      
1 40940U 15054A   17272.58676033 -.00000291  00000-0  00000-0 0  9992
2 40940   0.0176 210.3032 0001806 328.1943 181.5244  1.00271931  7375
ARSAT 2                 
1 40941U 15054B   17272.20233701 -.00000238  00000-0  00000+0 0  9993
2 40941   0.0126 144.5438 0001558  34.2915 181.1860  1.00272659  7409
MORELOS 3               
1 40946U 15056A   17272.20584307 -.00000057  00000-0  00000-0 0  9991
2 40946   6.2920 329.2178 0002005 186.8432 173.0983  1.00272102  7378
APSTAR 9                
1 40982U 15059A   17273.49840976 -.00000278  00000-0  00000+0 0  9997
2 40982   0.0240 136.1372 0000743 101.3078  93.4188  1.00270031  7248
TURKSAT 4B              
1 40984U 15060A   17272.83674427  .00000102  00000-0  00000+0 0  9999
2 40984   0.0180 150.2116 0002057  40.4487 169.3571  1.00272536  7200
CHINASAT 2C (ZX 2C)     
1 41021U 15063A   17273.57560547 -.00000336  00000-0  00000+0 0  9994
2 41021   0.0078 146.7646 0002571 149.3260  24.0770  1.00273681  7105
GSAT-15                 
1 41028U 15065A   17271.71912853 -.00000270  00000-0  00000+0 0  9995
2 41028   0.0179 159.2399 0001489  22.9120 177.8677  1.00270899  6948
BADR-7 (ARABSAT-6B)     
1 41029U 15065B   17271.90590545  .00000132  00000-0  00000-0 0  9994
2 41029   0.0454 248.7885 0004987 332.2753 138.9192  1.00272985  6830
LAOSAT 1                
1 41034U 15067A   17272.61930747 -.00000355  00000-0  00000+0 0  9990
2 41034   0.0307  68.5856 0001935  78.3828 213.0651  1.00275009  6936
TELSTAR 12V             
1 41036U 15068A   17273.01681596 -.00000131  00000-0  00000+0 0  9995
2 41036   0.0119 238.9986 0002074 307.0973 173.9235  1.00271713  6822
CHINASAT 1C (ZX 1C)     
1 41103U 15073A   17272.92202116 -.00000164  00000-0  00000+0 0  9998
2 41103   0.0053 174.8317 0004151  98.5231 148.9888  1.00273535  6760
ELEKTRO-L 2             
1 41105U 15074A   17273.11090903 -.00000108  00000-0  00000+0 0  9990
2 41105   0.0955  82.2313 0002224 173.4249 229.2767  1.00270949  6611
COSMOS 2513             
1 41121U 15075A   17272.98783819 -.00000151  00000-0  00000+0 0  9996
2 41121   0.0585 112.1916 0003451 112.9562 219.6684  1.00271931  6690
EXPRESS-AMU1            
1 41191U 15082A   17272.62058772  .00000143  00000-0  00000-0 0  9996
2 41191   0.0088 199.9124 0001779 337.9939  90.1695  1.00272365  6592
GAOFEN 4                
1 41194U 15083A   17272.96588297 -.00000348  00000-0  00000-0 0  9995
2 41194   0.0913 101.9080 0004028 136.5628 223.8786  1.00274847  6586
BELINTERSAT-1           
1 41238U 16001A   17272.72385390  .00000094  00000-0  00000+0 0  9994
2 41238   0.0069 344.5558 0001674 145.6848 190.5235  1.00271310  6357
IRNSS-1E                
1 41241U 16003A   17271.98118209 -.00000280  00000-0  00000+0 0  9998
2 41241  28.9465 112.8945 0018716 179.3399 180.7799  1.00276767  6274
INTELSAT 29E (IS-29E)   
1 41308U 16004A   17273.11376236 -.00000294  00000-0  00000+0 0  9991
2 41308   0.0100 212.2576 0001835 321.6948 186.0719  1.00272264  6253
EUTELSAT 9B             
1 41310U 16005A   17271.95293152  .00000049  00000-0  00000-0 0  9998
2 41310   0.0462 100.2689 0003816 158.9968 100.7120  1.00271154  6191
SES-9                   
1 41380U 16013A   17271.67798674 -.00000358  00000-0  00000+0 0  9995
2 41380   0.0371 293.7784 0001400 215.4838 210.7660  1.00272287  5832
EUTELSAT 65 WEST A      
1 41382U 16014A   17273.15581881 -.00000288  00000-0  00000+0 0  9995
2 41382   0.0254  19.9860 0001865 176.2325 163.7756  1.00268876  5749
IRNSS-1F                
1 41384U 16015A   17272.61423019  .00000140  00000-0  00000-0 0  9993
2 41384   3.9483 262.4939 0019324 187.3217 172.3621  1.00268037  5781
IRNSS-1G                
1 41469U 16027A   17272.34954616 -.00000354  00000-0  00000-0 0  9990
2 41469   4.0196 263.9372 0003667 206.7472 152.9545  1.00267558  5288
JCSAT 2B                
1 41471U 16028A   17272.54865209 -.00000178  00000-0  00000+0 0  9998
2 41471   0.0206 181.8309 0001975   0.6516 177.5165  1.00270325  5172
THAICOM 8               
1 41552U 16031A   17272.75789997 -.00000134  00000-0  00000-0 0  9997
2 41552   0.0583  30.9536 0001055  35.7798 293.2993  1.00273110  4816
INTELSAT 31 (IS-31)     
1 41581U 16035A   17272.24129223 -.00000163  00000-0  00000-0 0  9999
2 41581   0.0204 231.4226 0001293 342.2164 146.3738  1.00271120  4778
BEIDOU G7               
1 41586U 16037A   17272.47181877 -.00000261  00000-0  00000-0 0  9993
2 41586   1.0844 323.4606 0002923 261.6124  97.6863  1.00276667  4889
ABS-2A (MONGOLSAT-1)    
1 41588U 16038A   17271.77112627 -.00000098  00000-0  00000-0 0  9993
2 41588   0.0081 137.9578 0002557 325.7240 256.3668  1.00272812  4800
EUTELSAT 117 WEST B     
1 41589U 16038B   17271.30467991 -.00000025  00000-0  00000-0 0  9990
2 41589   0.0019  57.8384 0000588 218.3646  83.7903  1.00270308  4785
BRISAT                  
1 41591U 16039A   17272.55832346 -.00000209  00000-0  00000+0 0  9995
2 41591   0.0168 222.4596 0002272 315.2754 182.2873  1.00272562  4737
ECHOSTAR 18             
1 41592U 16039B   17273.14517639 -.00000294  00000-0  00000+0 0  9991
2 41592   0.0141 130.9419 0002020  59.7512 169.3248  1.00274087  4724
TIANTONG-1 1            
1 41725U 16048A   17272.96724366 -.00000331  00000-0  00000-0 0  9998
2 41725   4.4423 325.4830 0003047 319.5713 173.4587  1.00271751  4368
JCSAT-16                
1 41729U 16050A   17272.52629608 -.00000105  00000-0  00000-0 0  9999
2 41729   0.0216 182.7469 0001867 357.2853 179.9678  1.00270333  4141
INTELSAT 36 (IS-36)     
1 41747U 16053A   17272.78546228 -.00000036  00000-0  00000+0 0  9998
2 41747   0.0092 185.3297 0002784 156.0053  18.6548  1.00269979  4067
